{"fetched_at":"2026-04-01T16:59:04Z","count":11445,"tles":[{"name":"STARLINK-37185","line1":"1 68340U 26059V   26090.66668981 -.01828809  00000+0 -97920-2 0  9996","line2":"2 68340  53.1593 252.5867 0000627  79.3538 209.3279 15.82470616  2570","category":"Starlink"}]}